ONEWEB-0534             
1 55797U 23029B   26198.45660012 -.00000133  00000+0 -36018-3 0  9998
2 55797  87.9175 268.4359 0002096 101.0048 259.1322 13.20771336165144
ONEWEB-0556             
1 55798U 23029C   26198.61486330  .00000047  00000+0  83974-4 0  9992
2 55798  87.9173 268.4032 0001426 116.3528 243.7752 13.20769895165164
ONEWEB-0562             
1 55799U 23029D   26198.60139253  .00000038  00000+0  61557-4 0  9994
2 55799  87.9171 268.3867 0001287  86.3200 273.8080 13.20771875165165
ONEWEB-0563             
1 55800U 23029E   26198.14179885  .00000103  00000+0  22152-3 0  9991
2 55800  87.9173 268.5083 0002172 104.2869 255.8505 13.20770486165098
ONEWEB-0564             
1 55801U 23029F   26198.43809914  .00000064  00000+0  12505-3 0  9994
2 55801  87.9175 268.4233 0001744  91.8754 268.2579 13.20772928165143
ONEWEB-0638             
1 55802U 23029G   26198.23124164  .00000253  00000+0  64895-3 0  9999
2 55802  87.8958 283.7630 0001476 105.0547 255.0746 13.14504433163340
ONEWEB-0639             
1 55803U 23029H   26198.20698315  .00000067  00000+0  13622-3 0  9996
2 55803  87.9187 298.9981 0002691 118.3792 241.7613 13.19726840162866
ONEWEB-0640             
1 55804U 23029J   26197.78405342 -.00000005  00000+0 -49042-4 0  9995
2 55804  87.8960 283.8432 0001637 118.1769 241.9527 13.14502179163308
ONEWEB-0641             
1 55805U 23029K   26197.82318147 -.00000783  00000+0 -19894-2 0  9990
2 55805  87.9193 299.0658 0002058 103.6810 256.4552 13.19718229162826
ONEWEB-0642             
1 55806U 23029L   26198.27334048  .00000029  00000+0  39651-4 0  9995
2 55806  87.9188 298.9859 0002690 110.4334 249.7088 13.19726558162879
ONEWEB-0643             
1 55807U 23029M   26198.21063435  .00000108  00000+0  25559-3 0  9998
2 55807  87.8955 283.7455 0002692 105.5176 254.6251 13.14502711163333
ONEWEB-0644             
1 55808U 23029N   26197.81370375 -.00000010  00000+0 -58234-4 0  9999
2 55808  87.9183 299.0786 0002307 105.5106 254.6282 13.19726137162812
ONEWEB-0645             
1 55809U 23029P   26198.51816615  .00000066  00000+0  13297-3 0  9998
2 55809  87.9187 298.9350 0002110 114.5987 245.5366 13.19726017162900
ONEWEB-0646             
1 55810U 23029Q   26198.53552960  .00000104  00000+0  22763-3 0  9993
2 55810  87.9186 298.9323 0002292 104.1967 255.9420 13.19727476162899
ONEWEB-0648             
1 55811U 23029R   26198.63561709 -.00000102  00000+0 -30835-3 0  9995
2 55811  87.8970 283.6369 0002488 122.0233 238.1138 13.14503297163396
ONEWEB-0649             
1 55812U 23029S   26198.56079638  .00000040  00000+0  67008-4 0  9995
2 55812  87.9187 298.9252 0002095 108.6612 251.4748 13.19726866162931
ONEWEB-0650             
1 55813U 23029T   26198.55606381  .00000066  00000+0  13271-3 0  9996
2 55813  87.9184 298.9284 0002544 110.4363 249.7043 13.19726263162903
ONEWEB-0652             
1 55814U 23029U   26198.15988522  .00000227  00000+0  57887-3 0  9993
2 55814  87.8968 283.7387 0001991  94.9032 265.2325 13.14502774163308
ONEWEB-0653             
1 55815U 23029V   26198.22014258  .00000246  00000+0  62936-3 0  9990
2 55815  87.8968 283.7251 0001945  99.6578 260.4771 13.14502346163346
ONEWEB-0654             
1 55816U 23029W   26198.51985415  .00000152  00000+0  37661-3 0  9998
2 55816  87.8966 283.6612 0001794  91.7687 268.3649 13.14502751163409
ONEWEB-0656             
1 55817U 23029X   26198.12833347  .00000066  00000+0  13115-3 0  9994
2 55817  87.9187 268.4643 0001838  87.2581 272.8763 13.20770342165109
ONEWEB-0657             
1 55818U 23029Y   26198.55135259  .00000082  00000+0  17264-3 0  9996
2 55818  87.9183 298.9279 0002152  78.8866 281.2509 13.19727071162918
ONEWEB-0658             
1 55819U 23029Z   26198.54659876  .00000077  00000+0  15939-3 0  9993
2 55819  87.9193 298.9071 0002390 106.4807 253.6588 13.19726336162921
ONEWEB-0660             
1 55820U 23029AA  26198.49765141 -.00000160  00000+0 -46498-3 0  9991
2 55820  87.8975 283.6617 0002001 109.0536 251.0810 13.14502362163381
ONEWEB-0661             
1 55821U 23029AB  26198.53254849  .00000245  00000+0  62623-3 0  9995
2 55821  87.8957 283.6944 0001849 107.3446 252.7886 13.14503307163375
ONEWEB-0662             
1 55822U 23029AC  26198.18684593 -.00000187  00000+0 -53831-3 0  9998
2 55822  87.8959 283.7686 0001959 107.9842 252.1502 13.14502309163370
ONEWEB-0663             
1 55823U 23029AD  26198.61430498  .00000051  00000+0  94566-4 0  9999
2 55823  87.9185 268.4384 0002221 109.6423 250.4950 13.20871507165168
ONEWEB-0664             
1 55824U 23029AE  26198.19063299  .00000069  00000+0  13804-3 0  9998
2 55824  87.9173 268.5006 0001615 103.4441 256.6873 13.20772058165103
ONEWEB-0665             
1 55825U 23029AF  26198.22490744  .00000296  00000+0  76403-3 0  9998
2 55825  87.8958 283.7365 0002062 109.1277 251.0076 13.14502643163351
ONEWEB-0666             
1 55826U 23029AG  26198.63841794 -.00000058  00000+0 -17564-3 0  9990
2 55826  87.9173 268.4017 0002439  83.0148 277.1263 13.20773279165172
